,name,a,e,i,om,w,q,ad,per_y,data_arc,condition_code,n_obs_used,H,neo,pha,diameter,extent,albedo,rot_per,GM,BV,UB,IR,spec_B,spec_T,G,moid,class,n,per,ma
3519,,2.390470391392308,0.1848476612867477,3.194424433667295,111.3822049946958,298.6195447338162,1.948597530168224,2.832343252616393,3.69601100382143,4081.0,0,74,18.3,N,N,,,,,,,,,,,,0.96109,MBA,0.2666729840220942,1349.968019145777,333.1871362595291
3520,,2.628681128738045,0.109725251834914,2.562712459027779,1.128040212201766,6.995120514009845,2.340248429893577,2.917113827582513,4.26201587770631,7229.0,0,202,16.8,N,N,,,,,,,,,,,,1.33824,MBA,0.2312582382724464,1556.701299332231,67.48286967147953
3521,,2.671544601824412,0.1823210193727733,7.142827262708224,188.2305543246561,222.3273153552619,2.184465866719955,3.158623336928868,4.36668481640878,6698.0,0,83,17.6,N,N,,,,,,,,,,,,1.20004,MBA,0.2257150045874274,1594.931629193306,36.65823461329465
3522,,3.247685643336475,0.1042164751287032,6.056179542228903,81.95723419212354,307.7248353135078,2.909223293261852,3.586147993411097,5.85287407694747,9763.0,0,252,15.4,N,N,,,,,,,,,,,,1.91935,OMB,0.1684003910573799,2137.762256605065,218.138408861943
3523,,3.137429756668866,0.1189952376719727,15.80442335122095,315.7061213031874,101.2490762189193,2.764090557094935,3.510768956242797,5.55736880784375,6264.0,1,39,16.6,N,N,,,,,,,,,,,,1.83075,MBA,0.1773548449720359,2029.82895706493,293.2322853608044
3524,,2.634218231296765,0.09531154587947473,7.488843519352665,122.6158833875684,313.2374208081289,2.383146819487974,2.885289643105555,4.27548935031319,4834.0,0,52,17.3,N,N,,,,,,,,,,,,1.40576,MBA,0.2305294675322622,1561.622485201891,82.87676716011306
3525,,3.15268092699746,0.07645167831357653,3.06897136498774,348.221206171661,188.8288436329513,2.911653178941302,3.393708675053618,5.59793989751579,7569.0,0,448,15.2,N,N,,,,,,,,,,,,1.91611,MBA,0.1760694650910686,2044.647547567642,97.00191939481796
3526,,2.292109144678022,0.1971379802101163,3.912372329043398,263.3502540034906,319.3970782872489,1.84024737747506,2.743970911880985,3.47025303743445,6193.0,0,287,17.0,N,N,,,,,,,,,,,,0.833609,MBA,0.2840214453342076,1267.509921922933,10.92767018373214
3527,,3.142237410402244,0.4179204521826004,26.04116034912476,154.8495244347934,248.8176111771752,1.829032130981855,4.455442689822632,5.57014748641865,4046.0,0,35,16.4,N,N,,,,,,,,,,,,0.977092,MBA,0.1769479687514108,2034.496369414411,5.26884558176178
3528,,2.386764150981862,0.2189052134589545,3.449741350993365,316.6432585860585,20.65339751654463,1.864289035034997,2.909239266928727,3.6874187653602,8602.0,0.0,479,16.2,N,N,1.374,,0.34,3.5,,,,,,,,0.854459,MBA,0.2672943720487027,1346.829704047812,147.5160408239845
3529,,2.718584445493412,0.06473998958437018,7.566893758565615,40.77602544491813,304.517963151811,2.542583316807938,2.894585574178886,4.48252214582977,4701.0,6,12,17.6,N,N,,,,,,,,,,,,1.54457,MBA,0.2198820778352464,1637.241213764322,172.4240758083151
3530,,1.701900863362064,0.41082709702599,27.31030594723405,9.400352398087126,219.1762983611965,1.002713872241001,2.401087854483126,2.22028942359854,118.0,3,286,20.2,Y,N,,,,9.42,,,,,,,,0.067667,APO,0.4439179292986505,810.9607119693653,283.2795226998974
3531,,2.668354214927698,0.04229096869760975,4.832128215668854,326.4514217087959,41.40661868882139,2.555506930350056,2.781201499505341,4.35886504020775,1423.0,3,29,17.8,N,N,,,,,,,,,,,,1.55418,MBA,0.2261199358722469,1592.075455935882,122.6379202730928
3532,,2.648504931979104,0.2028443126837336,17.21761377948394,1.524700491745697,13.8180680003369,2.111270769412324,3.185739094545883,4.31031868698632,6635.0,0,141,16.8,N,N,,,,,,,,,,,,1.11364,MBA,0.2286666845176324,1574.343900421754,8.913164510263144
3533,,2.624416156621578,0.1558361826348849,5.186135808746402,50.59020721421213,222.522319696644,2.215437161128355,3.033395152114801,4.25164755825078,2445.0,0,49,17.774,N,N,,,,,,,,,,,,1.20215,MBA,0.2318221983040064,1552.914270651097,206.2528163927704
3534,,3.087946501216412,0.09791078089460344,9.313256159362863,286.008636941629,78.53684313684232,2.785603247921554,3.390289754511269,5.42641311386291,5859.0,0,101,16.2,N,N,,,,,,,,,,,,1.8014,MBA,0.1816349516128005,1981.997389838429,324.648630825255
3535,Sandvicensis,2.688174769686871,0.1508299179517228,12.63805106234168,3.260112745115803,262.1800266247366,2.282717589735109,3.093631949638634,4.40752163941447,16632.0,0,1689,13.2,N,N,5.303,,0.361,,,,,,,,,1.30929,MBA,0.2236236969442299,1609.847278796135,208.4367034166938
3536,,2.64871478681893,0.209748282616222,9.298862644973966,350.5415260263982,333.2703006497467,2.093151409143467,3.204278164494393,4.31083099063226,8738.0,0,935,14.9,N,N,,,,,,,,,,,,1.08537,MBA,0.2286395095306198,1574.531019328434,71.06831392203652
3537,,2.212596738070974,0.2013836108754398,6.347861746989079,3.989303684837135,330.1795717679427,1.767016017547022,2.658177458594926,3.2912555461903,5846.0,0,254,17.2,N,N,,,,,,,,,,,,0.75995,MBA,0.2994681724147616,1202.131088246006,202.273597215957
3538,,2.709657755858106,0.1045609554341388,14.12430163186897,82.8190111768341,0.2963764594028668,2.426333352006058,2.992982159710154,4.46046219914396,6657.0,0,467,15.3,N,N,,,,,,,,,,,,1.44228,MBA,0.2209695406804961,1629.183818237331,85.64670345626791
3539,,2.314182738448821,0.1052794945183398,7.148894919851891,105.121177591455,111.965018772453,2.070546749521862,2.557818727375781,3.52050266193686,7709.0,0,1405,15.0,N,N,2.308,,0.399,,,,,,,,,1.07502,MBA,0.2799674870364391,1285.863597272437,97.76269489058436
3540,,2.564581473988031,0.2967451171412279,7.103281388450529,82.85503735214783,322.8129687138366,1.80355444407123,3.325608503904833,4.10707802283984,5308.0,0,270,16.7,N,N,,,,,,,,,,,,0.81896,MBA,0.2399823616416338,1500.110247842251,212.8945748269084
3541,,2.775738703532316,0.03925847332113339,5.820104312838874,148.2071166044831,198.9480217365616,2.666767439693255,2.884709967371376,4.62462022128878,7510.0,0,199,16.4,N,N,3.059,,0.063,,,,,,,,,1.65851,MBA,0.2131258862793463,1689.142535825725,150.9883959330194
3542,,3.085195690725499,0.1026304076984856,9.069071467887364,191.3742395112015,196.0380652787622,2.76856079915673,3.401830582294268,5.41916377714853,4030.0,0.0,70,16.9,N,N,,,,,,,,,,,,1.77304,MBA,0.1818779287541989,1979.349569603502,344.7134981865271
3543,,2.739987266183336,0.158986433212721,9.306226758792294,70.70336836787436,298.0597542418656,2.304366463684573,3.175608068682099,4.53556107025288,3328.0,1.0,48,17.3,N,N,,,,,,,,,,,,1.32124,MBA,0.21731077326506,1656.613680909865,140.9991756204109
3544,Karnten,2.64526361741789,0.04751237704462107,3.703159133657914,115.7765153619704,215.3188467281835,2.519580855044713,2.770946379791067,4.30240847519449,23711.0,0,1544,14.3,N,N,5.600,,0.118,,,,,,,,,1.50836,MBA,0.2290871006437856,1571.454695564788,57.72016124328503
3545,,21.068687604056,0.1954901966224697,3.0710368332593,65.31862991103239,199.8518718818386,16.9499657217617,25.1874094863503,96.7084511403279,6299.0,2,74,9.3,N,N,,,,,,,,,,,,15.934,CEN,0.01019172855883477,35322.76177900477,121.0744013161979
3546,,3.181744761197625,0.1025615741606038,14.45906197432092,237.8076066452867,102.3067403955162,2.855420009911942,3.508069512483308,5.67552719283581,4897.0,0.0,51,16.3,N,N,,,,,,,,,,,,1.89271,MBA,0.1736625074427813,2072.986307183279,7.616317277773096
3547,,3.087018955227109,0.2110117881905461,10.74646454046913,2.825165568280233,24.19967305909858,2.435621565306526,3.738416345147693,5.42396834851543,528.0,3,56,16.829,N,N,,,,,,,,,,,,1.44305,MBA,0.1817168206074299,1981.104439295261,88.7098561519843
3548,,2.883947036086213,0.2161090056770394,17.34321696387398,145.2980650983148,204.3008509216178,2.260700109692376,3.507193962480049,4.89766552528192,5972.0,0,101,16.5,N,N,,,,,,,,,,,,1.26195,MBA,0.2012440984954403,1788.87233310922,129.9118890015258
3549,,2.401363821278154,0.2241468121482961,5.112675684578097,106.5060942626133,288.5135943712036,1.863105775930405,2.939621866625903,3.72130397821966,6493.0,0,156,17.3,N,N,,,,,,,,,,,,0.87698,MBA,0.2648604599721786,1359.20627804473,267.4943165088819
3550,,2.430937417114531,0.127953941863832,2.426158481794279,9.889293291413024,214.381885365337,2.119889392170445,2.741985442058618,3.79025884423485,7030.0,0,192,17.1,N,N,,,,,,,,,,,,1.11152,MBA,0.2600419453850062,1384.39204285678,334.9774077537558
3551,,2.415318847483421,0.2561301649436332,6.895534816702956,133.1008244901148,189.4490278035936,1.796682832686027,3.033954862280816,3.75378943558064,5569.0,0,50,18.1,N,N,,,,,,,,,,,,0.783648,MBA,0.2625683460092903,1371.07159134583,164.0760145349181
3552,,2.845202651837229,0.1034177110597904,4.380685086777618,196.215029275973,236.0584907737726,2.550958306082977,3.139446997591481,4.79930123024136,3158.0,2,48,16.9,N,N,,,,,,,,,,,,1.56842,MBA,0.2053687060018087,1752.944774345656,0.923447038190656
3553,,2.771734608521204,0.04499331560404873,6.919647541131056,135.1370705910217,244.0140373679483,2.647025078509345,2.896444138533063,4.61461707917263,5654.0,0,170,16.6,N,N,,,,,,,,,,,,1.65494,MBA,0.2135878809568037,1685.488888167802,225.7428838275335
3554,,2.285279216893644,0.1726446607894047,5.286602778432426,321.5390167109563,69.3255172816897,1.890737961683965,2.679820472103324,3.45475383268567,7287.0,0,617,15.9,N,N,2.954,,0.116,,,,,,,,,0.902875,MBA,0.2852956624702107,1261.84883738844,27.46026868557301
3555,,1.942006735382557,0.08118266213956124,16.36908070363092,281.2829502175609,133.340371677235,1.784349458711243,2.099664012053872,2.706352111019,3.0,9,10,18.449,N,N,,,,,,,,,,,,0.824017,IMB,0.3641899660264269,988.495108549688,117.722670530225
3556,,2.374102487607684,0.1127301559386616,8.725911237778597,43.99371474803775,238.0886560052703,2.106469543965305,2.641735431250062,3.65811535906493,6506.0,0,187,16.6,N,N,,,,,,,,,,,,1.10477,MBA,0.2694355389654795,1336.126634898464,106.146826192811
3557,,2.799434705584514,0.1519654430771215,12.18482126376968,36.09622858458958,135.8060616446942,2.374017370184892,3.224852040984135,4.68396580494826,5696.0,0,199,16.0,N,N,,,,,,,,,,,,1.39426,MBA,0.2104255932710517,1710.818510257351,5.278330910705795
